start=new Date('2023-06-29T00:00:00.000Z').valueOf();
sats=[{"APOAPSIS":"540.417","TLE_LINE1":"1 51136U 22005AJ  23179.01001672  .00002370  00000-0  16694-3 0  9995","ARG_OF_PERICENTER":"89.6116","CENTER_NAME":"EARTH","REV_AT_EPOCH":"8105","ELEMENT_SET_NO":"999","LAUNCH_DATE":"2022-01-19","ECCENTRICITY":"0.00009930","TLE_LINE2":"2 51136  53.2172  44.0077 0000993  89.6116 270.4990 15.08844866 81057","EPHEMERIS_TYPE":"0","TIME_SYSTEM":"UTC","NORAD_CAT_ID":"51136","BSTAR":"0.00016694000000","MEAN_MOTION":"15.08844866","PERIAPSIS":"539.044","FILE":"3944734","RCS_SIZE":"LARGE","EPOCH":"2023-06-28T00:14:25.444608","COUNTRY_CODE":"US","INCLINATION":"53.2172","MEAN_MOTION_DOT":"0.00002370","OBJECT_NAME":"STARLINK-3253","CLASSIFICATION_TYPE":"U","OBJECT_TYPE":"PAYLOAD","SEMIMAJOR_AXIS":"6917.866","PERIOD":"95.437","OBJECT_ID":"2022-005AJ","MEAN_MOTION_DDOT":"0.0000000000000","MEAN_ANOMALY":"270.4990","GP_ID":"234599593","SITE":"AFETR","DECAY_DATE":null,"REF_FRAME":"TEME","MEAN_ELEMENT_THEORY":"SGP4","RA_OF_ASC_NODE":"44.0077"},{"CLASSIFICATION_TYPE":"U","OBJECT_TYPE":"PAYLOAD","PERIOD":"95.437","SEMIMAJOR_AXIS":"6917.876","COUNTRY_CODE":"US","EPOCH":"2023-06-27T20:46:22.834848","MEAN_MOTION_DOT":"0.00003459","OBJECT_NAME":"STARLINK-3180","INCLINATION":"53.2180","DECAY_DATE":null,"MEAN_ELEMENT_THEORY":"SGP4","RA_OF_ASC_NODE":"44.6595","REF_FRAME":"TEME","GP_ID":"234593344","SITE":"AFETR","MEAN_MOTION_DDOT":"0.0000000000000","OBJECT_ID":"2022-005AK","MEAN_ANOMALY":"265.7791","LAUNCH_DATE":"2022-01-19","ELEMENT_SET_NO":"999","REV_AT_EPOCH":"8102","TLE_LINE2":"2 51137  53.2180  44.6595 0000937  94.3308 265.7791 15.08841558 81020","ECCENTRICITY":"0.00009370","CENTER_NAME":"EARTH","APOAPSIS":"540.389","ARG_OF_PERICENTER":"94.3308","TLE_LINE1":"1 51137U 22005AK  23178.86554207  .00003459  00000-0  23528-3 0  9998","PERIAPSIS":"539.092","FILE":"3944447","RCS_SIZE":"LARGE","NORAD_CAT_ID":"51137","TIME_SYSTEM":"UTC","EPHEMERIS_TYPE":"0","MEAN_MOTION":"15.08841558","BSTAR":"0.00023528000000"},{"ELEMENT_SET_NO":"999","LAUNCH_DATE":"2022-01-19","REV_AT_EPOCH":"8102","TLE_LINE2":"2 51138  53.2174  44.6246 0001154  80.6110 279.5012 15.08837524 81025","ECCENTRICITY":"0.00011540","CENTER_NAME":"EARTH","TLE_LINE1":"1 51138U 22005AL  23178.87290402  .00000491  00000-0  48903-4 0  9992","ARG_OF_PERICENTER":"80.6110","APOAPSIS":"540.551","PERIAPSIS":"538.955","FILE":"3944447","RCS_SIZE":"LARGE","NORAD_CAT_ID":"51138","EPHEMERIS_TYPE":"0","TIME_SYSTEM":"UTC","MEAN_MOTION":"15.08837524","BSTAR":"0.00004890300000","CLASSIFICATION_TYPE":"U","PERIOD":"95.438","SEMIMAJOR_AXIS":"6917.888","OBJECT_TYPE":"PAYLOAD","COUNTRY_CODE":"US","EPOCH":"2023-06-27T20:56:58.907328","INCLINATION":"53.2174","MEAN_MOTION_DOT":"0.00000491","OBJECT_NAME":"STARLINK-3177","DECAY_DATE":null,"RA_OF_ASC_NODE":"44.6246","MEAN_ELEMENT_THEORY":"SGP4","REF_FRAME":"TEME","SITE":"AFETR","GP_ID":"234593100","MEAN_ANOMALY":"279.5012","OBJECT_ID":"2022-005AL","MEAN_MOTION_DDOT":"0.0000000000000"},{"REV_AT_EPOCH":"8116","ELEMENT_SET_NO":"999","LAUNCH_DATE":"2022-01-19","TLE_LINE2":"2 51139  53.2177  40.5282 0001064  84.9590 275.1524 15.08838624 81160","ECCENTRICITY":"0.00010640","TLE_LINE1":"1 51139U 22005AM  23179.78554488  .00000484  00000-0  48509-4 0  9995","ARG_OF_PERICENTER":"84.9590","APOAPSIS":"540.486","CENTER_NAME":"EARTH","PERIAPSIS":"539.014","RCS_SIZE":"LARGE","FILE":"3945181","TIME_SYSTEM":"UTC","EPHEMERIS_TYPE":"0","NORAD_CAT_ID":"51139","BSTAR":"0.00004850900000","MEAN_MOTION":"15.08838624","CLASSIFICATION_TYPE":"U","SEMIMAJOR_AXIS":"6917.885","PERIOD":"95.438","OBJECT_TYPE":"PAYLOAD","EPOCH":"2023-06-28T18:51:11.077632","COUNTRY_CODE":"US","INCLINATION":"53.2177","MEAN_MOTION_DOT":"0.00000484","OBJECT_NAME":"STARLINK-3172","DECAY_DATE":null,"REF_FRAME":"TEME","RA_OF_ASC_NODE":"40.5282","MEAN_ELEMENT_THEORY":"SGP4","MEAN_ANOMALY":"275.1524","OBJECT_ID":"2022-005AM","MEAN_MOTION_DDOT":"0.0000000000000","SITE":"AFETR","GP_ID":"234610904"},{"CLASSIFICATION_TYPE":"U","PERIOD":"95.437","SEMIMAJOR_AXIS":"6917.856","OBJECT_TYPE":"PAYLOAD","COUNTRY_CODE":"US","EPOCH":"2023-06-28T01:39:12.754368","MEAN_MOTION_DOT":"0.00003041","OBJECT_NAME":"STARLINK-3175","INCLINATION":"53.2169","DECAY_DATE":null,"RA_OF_ASC_NODE":"43.7547","MEAN_ELEMENT_THEORY":"SGP4","REF_FRAME":"TEME","SITE":"AFETR","GP_ID":"234600207","MEAN_ANOMALY":"264.0069","OBJECT_ID":"2022-005AN","MEAN_MOTION_DDOT":"0.0000000000000","LAUNCH_DATE":"2022-01-19","ELEMENT_SET_NO":"999","REV_AT_EPOCH":"8105","TLE_LINE2":"2 51140  53.2169  43.7547 0001105  96.1049 264.0069 15.08847885 81050","ECCENTRICITY":"0.00011050","CENTER_NAME":"EARTH","ARG_OF_PERICENTER":"96.1049","TLE_LINE1":"1 51140U 22005AN  23179.06889762  .00003041  00000-0  20900-3 0  9990","APOAPSIS":"540.486","PERIAPSIS":"538.957","FILE":"3944724","RCS_SIZE":"LARGE","NORAD_CAT_ID":"51140","EPHEMERIS_TYPE":"0","TIME_SYSTEM":"UTC","MEAN_MOTION":"15.08847885","BSTAR":"0.00020900000000"},{"RCS_SIZE":"LARGE","FILE":"3945181","PERIAPSIS":"538.984","BSTAR":"0.00000506260000","MEAN_MOTION":"15.08836316","TIME_SYSTEM":"UTC","EPHEMERIS_TYPE":"0","NORAD_CAT_ID":"51141","TLE_LINE2":"2 51141  53.2174  40.5581 0001117  80.0061 280.1058 15.08836316 81165","ECCENTRICITY":"0.00011170","REV_AT_EPOCH":"8116","LAUNCH_DATE":"2022-01-19","ELEMENT_SET_NO":"999","ARG_OF_PERICENTER":"80.0061","TLE_LINE1":"1 51141U 22005AP  23179.77818566 -.00000207  00000-0  50626-5 0  9995","APOAPSIS":"540.529","CENTER_NAME":"EARTH","REF_FRAME":"TEME","RA_OF_ASC_NODE":"40.5581","MEAN_ELEMENT_THEORY":"SGP4","DECAY_DATE":null,"MEAN_ANOMALY":"280.1058","MEAN_MOTION_DDOT":"0.0000000000000","OBJECT_ID":"2022-005AP","SITE":"AFETR","GP_ID":"234611122","SEMIMAJOR_AXIS":"6917.892","PERIOD":"95.438","OBJECT_TYPE":"PAYLOAD","CLASSIFICATION_TYPE":"U","MEAN_MOTION_DOT":"-0.00000207","OBJECT_NAME":"STARLINK-3179","INCLINATION":"53.2174","EPOCH":"2023-06-28T18:40:35.241024","COUNTRY_CODE":"US"},{"MEAN_MOTION_DDOT":"0.0000000000000","OBJECT_ID":"2022-005AQ","MEAN_ANOMALY":"283.4998","GP_ID":"234611246","SITE":"AFETR","DECAY_DATE":null,"REF_FRAME":"TEME","MEAN_ELEMENT_THEORY":"SGP4","RA_OF_ASC_NODE":"30.6226","EPOCH":"2023-06-28T18:41:56.215104","COUNTRY_CODE":"US","MEAN_MOTION_DOT":"0.00004118","INCLINATION":"53.2177","OBJECT_NAME":"STARLINK-3369","CLASSIFICATION_TYPE":"U","OBJECT_TYPE":"PAYLOAD","PERIOD":"95.438","SEMIMAJOR_AXIS":"6917.883","EPHEMERIS_TYPE":"0","TIME_SYSTEM":"UTC","NORAD_CAT_ID":"51142","BSTAR":"0.00027665000000","MEAN_MOTION":"15.08839191","PERIAPSIS":"538.935","FILE":"3945195","RCS_SIZE":"LARGE","APOAPSIS":"540.561","ARG_OF_PERICENTER":"76.6125","TLE_LINE1":"1 51142U 22005AQ  23179.77912286  .00004118  00000-0  27665-3 0  9999","CENTER_NAME":"EARTH","REV_AT_EPOCH":"8133","ELEMENT_SET_NO":"999","LAUNCH_DATE":"2022-01-19","TLE_LINE2":"2 51142  53.2177  30.6226 0001175  76.6125 283.4998 15.08839191 81333","ECCENTRICITY":"0.00011750"},{"TLE_LINE1":"1 51143U 22005AR  23178.96765961  .00001621  00000-0  11990-3 0  9996","ARG_OF_PERICENTER":"87.0052","APOAPSIS":"540.496","CENTER_NAME":"EARTH","REV_AT_EPOCH":"8089","ELEMENT_SET_NO":"999","LAUNCH_DATE":"2022-01-19","TLE_LINE2":"2 51143  53.2173  54.1973 0001111  87.0052 273.1067 15.08845746 80891","ECCENTRICITY":"0.00011110","TIME_SYSTEM":"UTC","EPHEMERIS_TYPE":"0","NORAD_CAT_ID":"51143","BSTAR":"0.00011990000000","MEAN_MOTION":"15.08845746","PERIAPSIS":"538.959","FILE":"3945195","RCS_SIZE":"LARGE","EPOCH":"2023-06-27T23:13:25.790304","COUNTRY_CODE":"US","MEAN_MOTION_DOT":"0.00001621","OBJECT_NAME":"STARLINK-3184","INCLINATION":"53.2173","CLASSIFICATION_TYPE":"U","PERIOD":"95.437","SEMIMAJOR_AXIS":"6917.863","OBJECT_TYPE":"PAYLOAD","MEAN_ANOMALY":"273.1067","OBJECT_ID":"2022-005AR","MEAN_MOTION_DDOT":"0.0000000000000","SITE":"AFETR","GP_ID":"234611243","DECAY_DATE":null,"REF_FRAME":"TEME","RA_OF_ASC_NODE":"54.1973","MEAN_ELEMENT_THEORY":"SGP4"},{"FILE":"3945195","RCS_SIZE":"LARGE","PERIAPSIS":"539.004","MEAN_MOTION":"15.08834412","BSTAR":"-0.00000862580000","NORAD_CAT_ID":"51144","TIME_SYSTEM":"UTC","EPHEMERIS_TYPE":"0","TLE_LINE2":"2 51144  53.2171  40.5419 0001096  81.2878 278.8238 15.08834412 81169","ECCENTRICITY":"0.00010960","ELEMENT_SET_NO":"999","LAUNCH_DATE":"2022-01-19","REV_AT_EPOCH":"8116","CENTER_NAME":"EARTH","ARG_OF_PERICENTER":"81.2878","TLE_LINE1":"1 51144U 22005AS  23179.78186647 -.00000425  00000-0 -86258-5 0  9990","APOAPSIS":"540.521","RA_OF_ASC_NODE":"40.5419","MEAN_ELEMENT_THEORY":"SGP4","REF_FRAME":"TEME","DECAY_DATE":null,"SITE":"AFETR","GP_ID":"234611253","MEAN_ANOMALY":"278.8238","MEAN_MOTION_DDOT":"0.0000000000000","OBJECT_ID":"2022-005AS","PERIOD":"95.438","SEMIMAJOR_AXIS":"6917.897","OBJECT_TYPE":"PAYLOAD","CLASSIFICATION_TYPE":"U","INCLINATION":"53.2171","MEAN_MOTION_DOT":"-0.00000425","OBJECT_NAME":"STARLINK-3185","COUNTRY_CODE":"US","EPOCH":"2023-06-28T18:45:53.263008"},{"NORAD_CAT_ID":"51145","EPHEMERIS_TYPE":"0","TIME_SYSTEM":"UTC","MEAN_MOTION":"15.08845462","BSTAR":"0.00006969800000","PERIAPSIS":"539.101","RCS_SIZE":"LARGE","FILE":"3944719","CENTER_NAME":"EARTH","ARG_OF_PERICENTER":"96.5671","TLE_LINE1":"1 51145U 22005AT  23179.09645921  .00000822  00000-0  69698-4 0  9997","APOAPSIS":"540.356","ELEMENT_SET_NO":"999","LAUNCH_DATE":"2022-01-19","REV_AT_EPOCH":"8091","ECCENTRICITY":"0.00009070","TLE_LINE2":"2 51145  53.2174  53.6214 0000907  96.5671 263.5425 15.08845462 80919","SITE":"AFETR","GP_ID":"234600132","MEAN_ANOMALY":"263.5425","MEAN_MOTION_DDOT":"0.0000000000000","OBJECT_ID":"2022-005AT","DECAY_DATE":null,"RA_OF_ASC_NODE":"53.6214","MEAN_ELEMENT_THEORY":"SGP4","REF_FRAME":"TEME","COUNTRY_CODE":"US","EPOCH":"2023-06-28T02:18:54.075744","OBJECT_NAME":"STARLINK-3365","MEAN_MOTION_DOT":"0.00000822","INCLINATION":"53.2174","CLASSIFICATION_TYPE":"U","SEMIMAJOR_AXIS":"6917.864","PERIOD":"95.437","OBJECT_TYPE":"PAYLOAD"}];
